      2.10          N: GNSS NAV DATA                        RINEX VERSION / TYPE
fic2rin                                 05/03/2020 00:17:39 PGM / RUN BY / DATE
                                                            END OF HEADER
12 20  5  3  0  0  0.0 1.224116422236e-04-4.320099833421e-12 0.000000000000e+00
    6.200000000000e+01-3.178125000000e+01 4.275535236061e-09 1.495094406512e+00
   -1.709908246994e-06 8.119151461869e-03 7.107853889465e-06 5.153698696136e+03
    0.000000000000e+00-1.341104507446e-07 1.420440397856e+00-9.872019290924e-08
    9.783367015477e-01 2.510937500000e+02 1.145664453683e+00-8.108194881719e-09
   -3.968022426918e-10 1.000000000000e+00 2.104000000000e+03 0.000000000000e+00
    2.400000000000e+00 0.000000000000e+00-1.257285475731e-08 6.200000000000e+01
   -7.200000000000e+03 4.000000000000e+00
28 20  5  3  0  0  0.0 7.206136360765e-04-3.183231456205e-12 0.000000000000e+00
    1.300000000000e+01-1.850000000000e+01 4.341966574622e-09-4.764133677290e-01
   -1.095235347748e-06 1.843269239180e-02 7.787719368935e-06 5.153664308548e+03
    0.000000000000e+00-2.309679985046e-07 1.443066026384e+00 3.352761268616e-08
    9.775884160243e-01 2.438125000000e+02-1.408870048567e+00-8.337132989339e-09
   -2.767972440020e-10 1.000000000000e+00 2.104000000000e+03 0.000000000000e+00
    2.400000000000e+00 0.000000000000e+00-1.117587089539e-08 1.300000000000e+01
   -7.200000000000e+03 4.000000000000e+00
16 20  5  3  0  0  0.0-1.535853371024e-04-4.433786671143e-12 0.000000000000e+00
    4.100000000000e+01-1.934375000000e+01 4.232319150224e-09-3.388009050119e-01
   -7.804483175278e-07 1.152634306345e-02 6.947666406631e-06 5.153753828049e+03
    0.000000000000e+00 4.842877388000e-08 1.439314071608e+00 1.601874828339e-07
    9.785722533022e-01 2.552812500000e+02 6.303176059326e-01-8.176412008951e-09
   -3.000124967247e-10 1.000000000000e+00 2.104000000000e+03 0.000000000000e+00
    2.400000000000e+00 0.000000000000e+00-1.071020960808e-08 4.100000000000e+01
   -7.200000000000e+03 4.000000000000e+00
14 20  5  3  0  0  0.0-1.563085243106e-05 2.501110429876e-12 0.000000000000e+00
    1.290000000000e+02-3.281250000000e+00 4.294821753708e-09-1.442840431250e+00
   -1.788139343262e-07 1.134664518759e-02 1.150555908680e-05 5.153643508911e+03
    0.000000000000e+00 2.179294824600e-07-6.636900896077e-01 2.160668373108e-07
    9.606090997619e-01 1.592187500000e+02-1.919501412493e+00-7.862113202858e-09
   -1.500062483624e-11 1.000000000000e+00 2.104000000000e+03 0.000000000000e+00
    2.400000000000e+00 0.000000000000e+00-9.778887033463e-09 1.290000000000e+02
   -7.200000000000e+03 4.000000000000e+00
30 20  5  3  0  0  0.0-2.116248942912e-04-8.299139153678e-12 0.000000000000e+00
    2.800000000000e+01 5.878125000000e+01 5.260933424708e-09 2.157399646663e+00
    3.077089786530e-06 4.538045497611e-03 6.260350346565e-06 5.153649639130e+03
    0.000000000000e+00-2.607703208923e-08 3.374767681191e-01 3.166496753693e-08
    9.389799656788e-01 2.485625000000e+02-2.888004535244e+00-8.494639550120e-09
    2.025084352892e-10 1.000000000000e+00 2.104000000000e+03 0.000000000000e+00
    2.400000000000e+00 0.000000000000e+00 3.725290298462e-09 2.800000000000e+01
   -7.200000000000e+03 4.000000000000e+00
21 20  5  3  0  0  0.0-6.445217877626e-06 4.888534022029e-12 0.000000000000e+00
    2.600000000000e+01 4.468750000000e+01 5.154500419918e-09 1.126231152322e+00
    1.857057213783e-06 2.465764305089e-02 5.433335900307e-06 5.153513553619e+03
    0.000000000000e+00-1.322478055954e-07-2.904862054799e+00-5.699694156647e-07
    9.530271084216e-01 2.735625000000e+02-1.333993116065e+00-8.667146735736e-09
    3.703725703613e-10 1.000000000000e+00 2.104000000000e+03 0.000000000000e+00
    2.400000000000e+00 0.000000000000e+00-1.024454832077e-08 2.600000000000e+01
   -7.200000000000e+03 4.000000000000e+00
29 20  5  3  0  0  0.0-9.522167965770e-05-8.981260180008e-12 0.000000000000e+00
    8.800000000000e+01 2.921875000000e+01 3.896590880079e-09-8.224667081368e-01
    1.423060894012e-06 1.396261970513e-03 1.106597483158e-05 5.153593822479e+03
    0.000000000000e+00 5.587935447693e-09 2.466642141203e+00-2.421438694000e-08
    9.857941575978e-01 1.840625000000e+02 1.894855164941e+00-7.725678948395e-09
    1.103617398666e-10 1.000000000000e+00 2.104000000000e+03 0.000000000000e+00
    2.400000000000e+00 0.000000000000e+00-1.024454832077e-08 8.800000000000e+01
   -7.200000000000e+03 4.000000000000e+00
22 20  5  3  0  0  0.0-7.834499701858e-04 1.023181539495e-12 0.000000000000e+00
    9.700000000000e+01-7.615625000000e+01 5.448798392895e-09-2.085960097662e+00
   -3.946945071220e-06 7.223849068396e-03 5.455687642097e-06 5.153511257172e+03
    0.000000000000e+00-5.215406417847e-08-1.876324061251e+00 1.806765794754e-07
    9.301038097113e-01 2.550312500000e+02-1.172751021216e+00-8.563570992820e-09
   -2.835832409517e-10 1.000000000000e+00 2.104000000000e+03 0.000000000000e+00
    2.400000000000e+00 0.000000000000e+00-1.816079020500e-08 9.700000000000e+01
   -7.200000000000e+03 4.000000000000e+00
19 20  5  3  0  0  0.0-1.640231348574e-04 5.115907697473e-12 0.000000000000e+00
    7.300000000000e+01 4.337500000000e+01 3.947307278335e-09 1.382353480731e+00
    2.119690179825e-06 9.379824739881e-03 1.144781708717e-05 5.153690343857e+03
    0.000000000000e+00-5.215406417847e-08 2.500590836125e+00-2.197921276093e-07
    9.823291556666e-01 1.707187500000e+02 1.602666190257e+00-7.796039022032e-09
    1.535778257043e-10 1.000000000000e+00 2.104000000000e+03 0.000000000000e+00
    2.400000000000e+00 0.000000000000e+00-1.536682248116e-08 7.300000000000e+01
   -7.200000000000e+03 4.000000000000e+00
25 20  5  3  0  0  0.0 1.055188477039e-06 2.842170943040e-12 0.000000000000e+00
    8.400000000000e+01-2.818750000000e+01 4.624478342371e-09 1.283729617863e+00
   -1.570209860802e-06 9.272356750444e-03 6.450340151787e-06 5.153552452087e+03
    0.000000000000e+00-1.136213541031e-07 1.351770474620e+00-1.862645149231e-09
    9.656877939614e-01 2.575312500000e+02 9.295919639337e-01-8.329989834655e-09
   -4.203746531488e-10 1.000000000000e+00 2.104000000000e+03 0.000000000000e+00
    2.400000000000e+00 0.000000000000e+00 5.587935447693e-09 8.400000000000e+01
   -7.200000000000e+03 4.000000000000e+00
17 20  5  3  0  0  0.0 2.584909088910e-04 6.139089236967e-12 0.000000000000e+00
    9.300000000000e+01 5.084375000000e+01 3.883733201648e-09-1.290378666845e+00
    2.874061465263e-06 1.322047156282e-02 1.114048063755e-05 5.153701040268e+03
    0.000000000000e+00-1.098960638046e-07 2.454930462325e+00 3.147870302200e-07
    9.841387663127e-01 1.809687500000e+02-1.643320840212e+00-7.830326164515e-09
    1.042900583853e-10 1.000000000000e+00 2.104000000000e+03 0.000000000000e+00
    2.400000000000e+00 0.000000000000e+00-1.117587089539e-08 9.300000000000e+01
   -7.200000000000e+03 4.000000000000e+00
20 20  5  3  0  0  0.0 5.277451127768e-04 0.000000000000e+00 0.000000000000e+00
    8.900000000000e+01-7.643750000000e+01 5.506300788101e-09 2.389957230672e+00
   -3.850087523460e-06 5.061613977887e-03 4.159286618233e-06 5.153641283035e+03
    0.000000000000e+00 6.705522537231e-08-1.923880052115e+00 8.009374141693e-08
    9.334205522098e-01 2.863125000000e+02 2.651139742977e+00-8.664646631597e-09
   -2.771544017362e-10 1.000000000000e+00 2.104000000000e+03 0.000000000000e+00
    2.400000000000e+00 0.000000000000e+00-8.847564458847e-09 8.900000000000e+01
   -7.200000000000e+03 4.000000000000e+00
18 20  5  3  0  0  0.0 1.769429072738e-04 1.261923898710e-11 0.000000000000e+00
    1.670000000000e+02 4.678125000000e+01 4.821629411647e-09-3.024515536218e+00
    2.492219209671e-06 5.983036244288e-04 4.742294549942e-06 5.154342592239e+03
    0.000000000000e+00-4.656612873077e-08-2.813820601665e+00 3.539025783539e-08
    9.636252096693e-01 2.908125000000e+02 2.883049118225e+00-8.323203837706e-09
    3.400141629547e-10 1.000000000000e+00 2.104000000000e+03 0.000000000000e+00
    2.400000000000e+00 0.000000000000e+00-4.656612873077e-09 6.790000000000e+02
   -7.200000000000e+03 4.000000000000e+00
23 20  5  3  0  0  0.0-1.173517666757e-04 3.069544618484e-12 0.000000000000e+00
    1.180000000000e+02-1.275000000000e+01 4.532331646948e-09-3.049630748493e+00
   -8.381903171539e-07 1.417641667649e-02 1.274608075619e-05 5.155168010712e+03
    0.000000000000e+00 5.029141902924e-08-7.676963104328e-01-1.359730958939e-07
    9.435869814424e-01 1.187812500000e+02-2.196548847122e+00-7.788895867348e-09
    6.785996949726e-11 1.000000000000e+00 2.104000000000e+03 0.000000000000e+00
    2.400000000000e+00 6.300000000000e+01-2.002343535423e-08 1.180000000000e+02
   -7.200000000000e+03 4.000000000000e+00
23 20  5  2 23 59 44.0-1.173508353531e-04 3.069544618484e-12 0.000000000000e+00
    2.000000000000e+01-1.275000000000e+01 4.532331646948e-09-3.051962253701e+00
   -8.381903171539e-07 1.417641923763e-02 1.274608075619e-05 5.155168003082e+03
    6.047840000000e+05 5.029141902924e-08-6.472809207970e-01-1.359730958939e-07
    9.435870004603e-01 1.187812500000e+02-2.196548968544e+00-7.788895867348e-09
    6.785996949726e-11 1.000000000000e+00 2.103000000000e+03 0.000000000000e+00
    2.400000000000e+00 6.300000000000e+01-2.002343535423e-08 2.000000000000e+01
    6.000900000000e+05 4.000000000000e+00
22 20  5  2 23 59 44.0-7.834481075406e-04 1.023181539495e-12 0.000000000000e+00
    1.000000000000e+00-7.615625000000e+01 5.448798392895e-09-2.088294237586e+00
   -3.946945071220e-06 7.223850116134e-03 5.455687642097e-06 5.153511255264e+03
    6.047840000000e+05-5.215406417847e-08-1.755908646746e+00 1.806765794754e-07
    9.301037950821e-01 2.550312500000e+02-1.172750816407e+00-8.563570992820e-09
   -2.835832409517e-10 1.000000000000e+00 2.103000000000e+03 0.000000000000e+00
    2.400000000000e+00 0.000000000000e+00-1.816079020500e-08 1.000000000000e+00
    6.002100000000e+05 4.000000000000e+00
